#aV2023  3 27  0  0  0.00000000     288 DD+AD WGS84 FIT  NGA
## 2255  86400.00000000   300.00000000 60030 0.0000000000000
+   32     1  2  3  4  5  6  7  8  9 10 11 12 13 14 15 16 17
+         18 19 20 21 22 23 24 25 26 27 28 29 30 31 32  0  0
+          0  0  0  0  0  0  0  0  0  0  0  0  0  0  0  0  0
+          0  0  0  0  0  0  0  0  0  0  0  0  0  0  0  0  0
+          0  0  0  0  0  0  0  0  0  0  0  0  0  0  0  0  0
++         2  2  2  2  2  2  2  2  2  2  2  2  2  2  2  2  2
++         2  2  2  2  2  2  2  2  2  2  2  2  2  2  2  0  0
++         0  0  0  0  0  0  0  0  0  0  0  0  0  0  0  0  0
++         0  0  0  0  0  0  0  0  0  0  0  0  0  0  0  0  0
++         0  0  0  0  0  0  0  0  0  0  0  0  0  0  0  0  0
%c cc cc ccc ccc cccc cccc cccc cccc ccccc ccccc ccccc ccccc
%c cc cc ccc ccc cccc cccc cccc cccc ccccc ccccc ccccc ccccc
%f  0.0000000  0.000000000  0.00000000000  0.000000000000000
%f  0.0000000  0.000000000  0.00000000000  0.000000000000000
%i    0    0    0    0      0      0      0      0         0
%i    0    0    0    0      0      0      0      0         0
/*      NGA, ST. LOUIS,MO.                                  
/*   EPHEMERIS COMPUTED FROM 2 DAYS OF DATA                 
/*   EPOCHA v8 SMOOTHER                                     
/*   G2139 IERS2010 SATIGS SATAPC                           
*  2023  3 27 21 30  0.00000000
P  1  20366.566852  11993.649476  12143.561038    198.638897                    
V  1   8999.477204  13016.724970 -26882.061678     -0.035817                    
P  2 -20901.979804  -7098.106593 -13972.618207   -611.093074                    
V  2 -11805.372727 -14930.557030  24422.320606      0.029246                    
P  3  14853.819290   2010.163872  21793.284124   -341.826433                    
V  3  -8912.685991  26471.438950   3727.418795      0.075538                    
P  4  25667.826033    970.071932   6995.896872      2.838927                    
V  4  -8351.527995   3846.941536  30044.734678      0.089018                    
P  5  -7678.274331 -18008.941802 -18062.766187   -121.126452                    
V  5   7961.477386 -21238.838492  18077.198817     -0.014759                    
P  6    460.125407 -18679.605781  18900.048818    584.109803                    
V  6  16198.883422  17508.031347  17062.066690      0.022292                    
P  7  17153.587313  -1795.525592 -19881.903709    214.184508                    
V  7  16244.498403  20499.316845  11420.518074     -0.080620                    
P  8  18939.236796   8116.229576 -17039.939410   -114.970050                    
V  8 -20551.255557   6028.645593 -19659.914211     -0.017992                    
P  9  25187.319861  -7817.862869  -3418.804065   -192.092431                    
V  9   4761.852053   1956.045513  31218.445827      0.076746                    
P 10 -11140.506195  23526.290550  -4186.602124    -30.334803                    
V 10   -558.828015  -6094.504249 -31734.614706     -0.016013                    
P 11 -10935.495713 -22925.524997   7834.617375   -143.530283                    
V 11   8037.553630   6320.062332  29714.588976     -0.119187                    
P 12 -13998.730235  -5339.879570  21647.338502   -356.743274                    
V 12  11016.151860 -25906.989225    813.843618     -0.046325                    
P 13 -11575.055099 -13246.559408 -20133.984604    496.996773                    
V 13  25019.915100  -2144.011624 -12892.179409      0.057177                    
P 14  13580.913380 -21705.458741  -6781.219912      7.883026                    
V 14   -185.424321   9216.871258 -29981.190553      0.107603                    
P 15 -19993.577343  -6456.717748 -16855.989067     25.368121                    
V 15  18806.021355  -8509.466319 -19308.826659      0.033902                    
P 16   3662.543126  20229.892431 -16858.877675   -512.812170                    
V 16 -10377.680323  18358.348528  20588.894213      0.024125                    
P 17  16970.721363 -13159.782140  16126.164307    707.713974                    
V 17  19641.754997  -1026.908671 -22002.137000      0.019448                    
P 18 -14295.570753   5802.054909 -21635.513527   -198.293707                    
V 18 -17235.310942 -21322.476689   5527.409203     -0.166324                    
P 19   7148.648893 -14665.834109  20666.613283    295.776911                    
V 19  26786.604683  -1228.285610 -10300.750285      0.050910                    
P 20  -2664.242611 -24773.297358  -9451.255927    442.408337                    
V 20   4748.616953 -11371.529952  28163.722720     -0.023004                    
P 21  21223.971763  16204.282345   4667.974084    154.326352                    
V 21   2264.156054   4950.622299 -30523.251865     -0.000303                    
P 22  -3128.310532  15545.705406  21731.299711    453.334529                    
V 22 -26479.025797   2255.215855  -5703.384005      0.071081                    
P 23 -15511.167853  15566.355006 -14806.438145     13.093075                    
V 23   3878.673642 -18538.101389 -23685.524689      0.022874                    
P 24 -21734.904342 -13612.660206   7339.253777   -128.801561                    
V 24  -4752.635878  -9040.696561 -29009.943690     -0.150319                    
P 25 -16624.181134   6622.278555  19225.663751    431.078152                    
V 25   6543.858221 -24384.663876  14098.500130      0.029668                    
P 26  -3440.201717  25731.151063  -4790.098902    241.966508                    
V 26  -5307.063410   4782.702341  30572.580459     -0.000628                    
P 27   7882.149241  13658.611934 -21669.402878     71.690956                    
V 27 -26318.709024   5357.611482  -5857.408346     -0.082779                    
P 28  -1850.436965  17964.342142  19449.069093     53.438978                    
V 28 -17731.845100 -17315.785722  14279.530031      0.084471                    
P 29 -26433.731472   3011.044056    -76.896488   -592.879446                    
V 29   -283.251462  -2212.525282  32060.200951     -0.017754                    
P 30   8293.756211 -13988.409350 -20858.295360   -525.091399                    
V 30  18000.687144  19957.230750  -6459.138262      0.016885                    
P 31   2952.315931  20958.051479  15604.387966   -212.615519                    
V 31 -14768.627480 -14153.964759  22003.205623     -0.008802                    
P 32 -13523.825759  15042.691974  17283.128939   -435.505818                    
V 32 -21627.269191   2448.821617 -19444.535523     -0.105600                    
EOF
